NORAD_CAT_ID,OBJECT_NAME,OBJECT_TYPE,EPOCH,MEAN_MOTION,ECCENTRICITY,INCLINATION,RA_OF_ASC_NODE,ARG_OF_PERICENTER,MEAN_ANOMALY,BSTAR,MEAN_MOTION_DOT,MEAN_MOTION_DDOT,TLE_LINE0,TLE_LINE1,TLE_LINE2,SEMIMAJOR_AXIS,PERIOD,APOGEE,PERIGEE,DECAYED
55765.0,STARLINK-5595,PAYLOAD,2024-05-31 21:10:10,14.98328775,0.0002853,70.0006,55.4503,270.5902,89.493,1.4536e-05,8e-07,0.0,0 STARLINK-5595,1 55765U 23028AA  24152.88206937  .00000080  00000-0  14536-4 0  9991,2 55765  70.0006  55.4503 0002853 270.5902  89.4930 14.98328775 69640,6950.197,96.107,574.045,570.079,0.0
55765.0,STARLINK-5595,PAYLOAD,2024-06-01 03:34:42,14.98334001,0.0002927,70.0005,54.7775,270.936,89.1464,3.9584e-06,-4.6e-07,0.0,0 STARLINK-5595,1 55765U 23028AA  24153.14910602 -.00000046  00000-0  39584-5 0  9996,2 55765  70.0005  54.7775 0002927 270.9360  89.1464 14.98334001 69677,6950.181,96.107,574.08,570.011,0.0
55765.0,STARLINK-5595,PAYLOAD,2024-06-01 21:12:11,14.98327266,0.0002918,70.0007,52.926,270.8859,89.1966,3.3694e-06,-5.3e-07,0.0,0 STARLINK-5595,1 55765U 23028AA  24153.88347027 -.00000053  00000-0  33694-5 0  9996,2 55765  70.0007  52.9260 0002918 270.8859  89.1966 14.98327266 69784,6950.201,96.107,574.094,570.038,0.0
55765.0,STARLINK-5595,PAYLOAD,2024-06-02 10:01:16,14.98330402,0.0002899,70.0009,51.5792,272.2776,87.8052,2.6252e-06,-6.2e-07,0.0,0 STARLINK-5595,1 55765U 23028AA  24154.41754810 -.00000062  00000-0  26252-5 0  9990,2 55765  70.0009  51.5792 0002899 272.2776  87.8052 14.98330402 69870,6950.192,96.107,574.072,570.042,0.0
55765.0,STARLINK-5595,PAYLOAD,2024-06-03 03:38:44,14.98334867,0.0002834,70.001,49.7281,272.3331,87.7504,1.791e-05,1.21e-06,0.0,0 STARLINK-5595,1 55765U 23028AA  24155.15190422  .00000121  00000-0  17910-4 0  9990,2 55765  70.0010  49.7281 0002834 272.3331  87.7504 14.98334867 69972,6950.178,96.107,574.013,570.073,0.0
55765.0,STARLINK-5595,PAYLOAD,2024-06-03 10:03:16,14.98333071,0.0003004,70.0009,49.0541,273.4786,86.603,-4.5401e-06,-1.47e-06,0.0,0 STARLINK-5595,1 55765U 23028AA  24155.41894482 -.00000147  00000-0 -45401-5 0  9993,2 55765  70.0009  49.0541 0003004 273.4786  86.6030 14.98333071 70024,6950.183,96.107,574.136,569.961,0.0
55765.0,STARLINK-5595,PAYLOAD,2024-06-03 22:52:21,14.9833035,0.0002654,70.0019,47.7083,266.255,93.8306,8.5663e-05,9.29e-06,0.0,0 STARLINK-5595,1 55765U 23028AA  24155.95302396  .00000929  00000-0  85663-4 0  9999,2 55765  70.0019  47.7083 0002654 266.2550  93.8306 14.98330350 70102,6950.192,96.107,573.901,570.212,0.0
55765.0,STARLINK-5595,PAYLOAD,2024-06-04 10:05:17,14.9834363,0.0002806,70.002,46.5299,270.4159,89.6678,-0.00014981,-1.881e-05,0.0,0 STARLINK-5595,1 55765U 23028AA  24156.42034010 -.00001881  00000-0 -14981-3 0  9991,2 55765  70.0020  46.5299 0002806 270.4159  89.6678 14.98343630 70167,6950.151,96.106,573.966,570.066,0.0
55765.0,STARLINK-5595,PAYLOAD,2024-06-04 16:29:49,14.98333069,0.0002695,70.0019,45.8571,270.1249,89.9601,-3.07e-06,-1.3e-06,0.0,0 STARLINK-5595,1 55765U 23028AA  24156.68738337 -.00000130  00000-0 -30700-5 0  9997,2 55765  70.0019  45.8571 0002695 270.1249  89.9601 14.98333069 70202,6950.183,96.107,573.921,570.175,0.0
55765.0,STARLINK-5595,PAYLOAD,2024-06-04 22:54:21,14.98335238,0.0002676,70.0019,45.1841,269.5726,90.5127,3.7693e-05,3.57e-06,0.0,0 STARLINK-5595,1 55765U 23028AA  24156.95441989  .00000357  00000-0  37693-4 0  9997,2 55765  70.0019  45.1841 0002676 269.5726  90.5127 14.98335238 70252,6950.177,96.107,573.902,570.182,0.0
55765.0,STARLINK-5595,PAYLOAD,2024-06-05 10:07:18,14.98332034,0.0002697,70.0014,44.0025,277.4068,82.6785,-8.5956e-05,-1.118e-05,0.0,0 STARLINK-5595,1 55765U 23028AA  24157.42174506 -.00001118  00000-0 -85956-4 0  9991,2 55765  70.0014  44.0025 0002697 277.4068  82.6785 14.98332034 70320,6950.187,96.107,573.926,570.177,0.0
55765.0,STARLINK-5595,PAYLOAD,2024-06-05 22:56:23,14.98326957,0.0002776,70.0018,42.6571,269.7942,90.2899,-9.1816e-05,-1.188e-05,0.0,0 STARLINK-5595,1 55765U 23028AA  24157.95582860 -.00001188  00000-0 -91816-4 0  9994,2 55765  70.0018  42.6571 0002776 269.7942  90.2899 14.98326957 70404,6950.202,96.107,573.997,570.138,0.0
55765.0,STARLINK-5595,PAYLOAD,2024-06-06 02:08:39,14.98326512,0.0002809,70.0016,42.3207,270.0363,90.0474,-8.674e-05,-1.128e-05,0.0,0 STARLINK-5595,1 55765U 23028AA  24158.08934902 -.00001128  00000-0 -86740-4 0  9991,2 55765  70.0016  42.3207 0002809 270.0363  90.0474 14.98326512 70419,6950.204,96.107,574.021,570.116,0.0
55765.0,STARLINK-5595,PAYLOAD,2024-06-06 10:09:19,14.9832852,0.0002742,70.0026,41.4794,270.5067,89.5778,-2.9675e-05,-4.47e-06,0.0,0 STARLINK-5595,1 55765U 23028AA  24158.42314701 -.00000447  00000-0 -29675-4 0  9995,2 55765  70.0026  41.4794 0002742 270.5067  89.5778 14.98328520 70470,6950.197,96.107,573.968,570.157,0.0
55765.0,STARLINK-5595,PAYLOAD,2024-06-07 23:00:24,14.98398169,0.0002966,70.0011,37.6072,260.9818,99.1005,-0.0010572,-0.00012707,0.0,0 STARLINK-5595,1 55765U 23028AA  24159.95861802 -.00012707  00000-0 -10572-2 0  9999,2 55765  70.0011  37.6072 0002966 260.9818  99.1005 14.98398169 70707,6949.982,96.103,573.908,569.786,0.0
55765.0,STARLINK-5595,PAYLOAD,2024-06-08 02:12:41,14.98330685,0.0002777,70.0012,37.2723,263.6237,96.4606,4.6553e-05,4.63e-06,0.0,0 STARLINK-5595,1 55765U 23028AA  24160.09214250  .00000463  00000-0  46553-4 0  9999,2 55765  70.0012  37.2723 0002777 263.6237  96.4606 14.98330685 70719,6950.191,96.107,573.986,570.126,0.0
55765.0,STARLINK-5595,PAYLOAD,2024-06-08 15:01:45,14.98334395,0.0002346,70.0025,35.923,267.5875,92.5016,-3.7236e-05,-5.37e-06,0.0,0 STARLINK-5595,1 55765U 23028AA  24160.62622676 -.00000537  00000-0 -37236-4 0  9995,2 55765  70.0025  35.9230 0002346 267.5875  92.5016 14.98334395 70808,6950.179,96.107,573.675,570.414,0.0
55765.0,STARLINK-5595,PAYLOAD,2024-06-08 21:26:17,14.98336083,0.0002886,70.0009,35.2479,256.5464,103.5374,1.1704e-05,4.7e-07,0.0,0 STARLINK-5595,1 55765U 23028AA  24160.89326180  .00000047  00000-0  11704-4 0  9991,2 55765  70.0009  35.2479 0002886 256.5464 103.5374 14.98336083 70849,6950.174,96.107,574.045,570.033,0.0
55765.0,STARLINK-5595,PAYLOAD,2024-06-09 02:14:42,14.98333471,0.0002581,70.0013,34.7463,269.4751,90.6112,-3.0228e-05,-4.54e-06,0.0,0 STARLINK-5595,1 55765U 23028AA  24161.09354319 -.00000454  00000-0 -30228-4 0  9995,2 55765  70.0013  34.7463 0002581 269.4751  90.6112 14.98333471 70861,6950.182,96.107,573.841,570.253,0.0
55765.0,STARLINK-5595,PAYLOAD,2024-06-09 15:03:47,14.98426443,0.0002976,70.0021,33.3993,255.0868,104.9962,-0.0015107,-0.00018117,0.0,0 STARLINK-5595,1 55765U 23028AA  24161.62763279 -.00018117  00000-0 -15107-2 0  9995,2 55765  70.0021  33.3993 0002976 255.0868 104.9962 14.98426443 70955,6949.895,96.101,573.828,569.691,0.0
55765.0,STARLINK-5595,PAYLOAD,2024-06-09 21:28:18,14.98411896,0.0003018,70.0018,32.7261,257.0458,103.0364,-0.0013803,-0.00016559,0.0,0 STARLINK-5595,1 55765U 23028AA  24161.89466244 -.00016559  00000-0 -13803-2 0  9995,2 55765  70.0018  32.7261 0003018 257.0458 103.0364 14.98411896 70982,6949.94,96.102,573.902,569.707,0.0
55765.0,STARLINK-5595,PAYLOAD,2024-06-09 23:04:26,14.98407393,0.0003108,70.0012,32.5586,257.4265,102.6546,-0.0013591,-0.00016305,0.0,0 STARLINK-5595,1 55765U 23028AA  24161.96142210 -.00016305  00000-0 -13591-2 0  9990,2 55765  70.0012  32.5586 0003108 257.4265 102.6546 14.98407393 71002,6949.954,96.102,573.979,569.659,0.0
55765.0,STARLINK-5595,PAYLOAD,2024-06-10 08:41:15,14.98332562,0.0002993,69.9998,31.5491,267.1278,92.9539,-5.3096e-05,-7.27e-06,0.0,0 STARLINK-5595,1 55765U 23028AA  24162.36198384 -.00000727  00000-0 -53096-4 0  9995,2 55765  69.9998  31.5491 0002993 267.1278  92.9539 14.98332562 71052,6950.185,96.107,574.13,569.97,0.0
55765.0,STARLINK-5595,PAYLOAD,2024-06-10 21:30:19,14.9833173,0.0002861,70.0004,30.2027,266.5582,93.525,2.2201e-05,1.72e-06,0.0,0 STARLINK-5595,1 55765U 23028AA  24162.89606269  .00000172  00000-0  22201-4 0  9995,2 55765  70.0004  30.2027 0002861 266.5582  93.5250 14.98331730 71142,6950.188,96.107,574.041,570.064,0.0
55765.0,STARLINK-5595,PAYLOAD,2024-06-11 08:43:16,14.98334513,0.0003083,69.9999,29.0233,274.3803,85.7004,9.3968e-06,1.9e-07,0.0,0 STARLINK-5595,1 55765U 23028AA  24163.36338071  .00000019  00000-0  93968-5 0  9990,2 55765  69.9999  29.0233 0003083 274.3803  85.7004 14.98334513 71217,6950.179,96.107,574.187,569.901,0.0
55765.0,STARLINK-5595,PAYLOAD,2024-06-12 00:44:36,14.98332921,0.0003021,70.0,27.3401,270.2269,89.8544,6.7431e-05,7.12e-06,0.0,0 STARLINK-5595,1 55765U 23028AA  24164.03097992  .00000712  00000-0  67431-4 0  9994,2 55765  70.0000  27.3401 0003021 270.2269  89.8544 14.98332921 71309,6950.184,96.107,574.149,569.949,0.0
55765.0,STARLINK-5595,PAYLOAD,2024-06-12 19:58:14,14.9832436,0.0002958,69.9999,25.3193,270.259,89.823,1.5029e-05,8.6e-07,0.0,0 STARLINK-5595,1 55765U 23028AA  24164.83210692  .00000086  00000-0  15029-4 0  9996,2 55765  69.9999  25.3193 0002958 270.2590  89.8230 14.98324360 71427,6950.21,96.107,574.131,570.019,0.0
55765.0,STARLINK-5595,PAYLOAD,2024-06-12 21:34:22,14.98326115,0.00029,70.0001,25.1508,268.9004,91.1823,-2.4186e-05,-3.82e-06,0.0,0 STARLINK-5595,1 55765U 23028AA  24164.89886663 -.00000382  00000-0 -24186-4 0  9994,2 55765  70.0001  25.1508 0002900 268.9004  91.1823 14.98326115 71449,6950.205,96.107,574.085,570.054,0.0
55765.0,STARLINK-5595,PAYLOAD,2024-06-13 15:11:50,14.9833308,0.0002894,70.0,23.2992,270.3476,89.7351,2.2558e-05,1.76e-06,0.0,0 STARLINK-5595,1 55765U 23028AA  24165.63322016  .00000176  00000-0  22558-4 0  9994,2 55765  70.0000  23.2992 0002894 270.3476  89.7351 14.98333080 71556,6950.183,96.107,574.06,570.037,0.0
55765.0,STARLINK-5595,PAYLOAD,2024-06-13 21:36:22,14.98333759,0.0002933,69.9999,22.6259,270.6171,89.4652,1.2486e-05,5.6e-07,0.0,0 STARLINK-5595,1 55765U 23028AA  24165.90025946  .00000056  00000-0  12486-4 0  9992,2 55765  69.9999  22.6259 0002933 270.6171  89.4652 14.98333759 71596,6950.181,96.107,574.085,570.008,0.0
